[
  {
    "id": 0,
    "libid": "835",
    "name": "Akron-Summit Public Library",
    "address": "60 S High St",
    "city": "Akron",
    "state": "OH",
    "zip": 44326,
    "hub": "CLE",
    "route": 4005
  },
  {
    "id": 1,
    "libid": "603",
    "name": "Antioch College",
    "address": "1 Morgan Pl",
    "city": "Yellow Springs",
    "state": "OH",
    "zip": 45387,
    "hub": "DAY",
    "route": 2003
  },
  {
    "id": 2,
    "libid": "604",
    "name": "Antioch University",
    "address": "900 Dayton St",
    "city": "Yellow Springs",
    "state": "OH",
    "zip": 45387,
    "hub": "DAY",
    "route": 2003
  },
  {
    "id": 3,
    "libid": "415",
    "name": "Ashland University",
    "address": "509 College Ave",
    "city": "Ashland",
    "state": "OH",
    "zip": 44805,
    "hub": "CLE",
    "route": 4002
  },
  {
    "id": 4,
    "libid": "605",
    "name": "Baldwin Wallace University",
    "address": "57 E Bagley Rd",
    "city": "Berea",
    "state": "OH",
    "zip": 44017,
    "hub": "CLE",
    "route": 4002
  },
  {
    "id": 5,
    "libid": "301",
    "name": "Belmont College",
    "address": "120 Fox-Shannon Place St.",
    "city": "Clairsville",
    "state": "OH",
    "zip": 43950,
    "hub": "CLE",
    "route": 4001
  },
  {
    "id": 6,
    "libid": "607",
    "name": "Bluffton University",
    "address": "1 University Dr",
    "city": "Bluffton",
    "state": "OH",
    "zip": 45817,
    "hub": "TOL",
    "route": 5003
  },
  {
    "id": 7,
    "libid": "502",
    "name": "Bowling Green State University - Firelands",
    "address": "1 University Dr",
    "city": "Huron",
    "state": "OH",
    "zip": 44839,
    "hub": "CLE",
    "route": 4008
  },
  {
    "id": 8,
    "libid": "202",
    "name": "Bowling Green State University - Main",
    "address": "1001 E Wooster St",
    "city": "Bowling Green",
    "state": "OH",
    "zip": 43403,
    "hub": "TOL",
    "route": 5002
  },
  {
    "id": 9,
    "libid": "261",
    "name": "Bradford Public Library",
    "address": "138 E Main St",
    "city": "Bradford",
    "state": "OH",
    "zip": 45308,
    "hub": "DAY",
    "route": 2001
  },
  {
    "id": 10,
    "libid": "800",
    "name": "CLC 800 Alem Alexandria - Central Library Consortium",
    "address": "400 W. Johnstown Road",
    "city": "Gahanna",
    "state": "OH",
    "zip": 43230,
    "hub": "CMH",
    "route": 3003
  },
  {
    "id": 11,
    "libid": "800",
    "name": "CLC 800 BPL Bexley  - Central Library Consortium",
    "address": "400 W. Johnstown Road",
    "city": "Gahanna",
    "state": "OH",
    "zip": 43230,
    "hub": "CMH",
    "route": 3003
  },
  {
    "id": 12,
    "libid": "800",
    "name": "CLC 800 C-ARD CML ARD - Central Library Consortium ",
    "address": "400 W. Johnstown Road",
    "city": "Gahanna",
    "state": "OH",
    "zip": 43230,
    "hub": "CMH",
    "route": 3003
  },
  {
    "id": 13,
    "libid": "800",
    "name": "CLC 800 C-BNT CML BNT - Central Library Consortium",
    "address": "400 W. Johnstown Road",
    "city": "Gahanna",
    "state": "OH",
    "zip": 43230,
    "hub": "CMH",
    "route": 3003
  },
  {
    "id": 14,
    "libid": "800",
    "name": "CLC 800 C-CAN CML Canal - Central Library Consortium",
    "address": "400 W. Johnstown Road",
    "city": "Gahanna",
    "state": "OH",
    "zip": 43230,
    "hub": "CMH",
    "route": 3003
  },
  {
    "id": 15,
    "libid": "800",
    "name": "CLC 800 C-DPK CML DR Park - Central Library Consortium",
    "address": "400 W. Johnstown Road",
    "city": "Gahanna",
    "state": "OH",
    "zip": 43230,
    "hub": "CMH",
    "route": 3003
  },
  {
    "id": 16,
    "libid": "800",
    "name": "CLC 800 C-DUB CML Dublin - Central Library Consortium",
    "address": "400 W. Johnstown Road",
    "city": "Gahanna",
    "state": "OH",
    "zip": 43230,
    "hub": "CMH",
    "route": 3003
  },
  {
    "id": 17,
    "libid": "800",
    "name": "CLC 800 C-FRA CML FRA - Central Library Consortium",
    "address": "400 W. Johnstown Road",
    "city": "Gahanna",
    "state": "OH",
    "zip": 43230,
    "hub": "CMH",
    "route": 3003
  },
  {
    "id": 18,
    "libid": "800",
    "name": "CLC 800 C-GAH CML Gahanna - Central Library Consortium",
    "address": "400 W. Johnstown Road",
    "city": "Gahanna",
    "state": "OH",
    "zip": 43230,
    "hub": "CMH",
    "route": 3003
  },
  {
    "id": 19,
    "libid": "800",
    "name": "CLC 800 C-HTP CML Hilltop - Central Library Consortium",
    "address": "400 W. Johnstown Road",
    "city": "Gahanna",
    "state": "OH",
    "zip": 43230,
    "hub": "CMH",
    "route": 3003
  },
  {
    "id": 20,
    "libid": "800",
    "name": "CLC 800 C-KAR CML Karl Rd - Central Library Consortium",
    "address": "400 W. Johnstown Road",
    "city": "Gahanna",
    "state": "OH",
    "zip": 43230,
    "hub": "CMH",
    "route": 3003
  },
  {
    "id": 21,
    "libid": "800",
    "name": "CLC 800 C-LIN CML Linden - Central Library Consortium",
    "address": "400 W. Johnstown Road",
    "city": "Gahanna",
    "state": "OH",
    "zip": 43230,
    "hub": "CMH",
    "route": 3003
  },
  {
    "id": 22,
    "libid": "800",
    "name": "CLC 800 C-MAN CML Main - Central Library Consortium",
    "address": "400 W. Johnstown Road",
    "city": "Gahanna",
    "state": "OH",
    "zip": 43230,
    "hub": "CMH",
    "route": 3003
  },
  {
    "id": 23,
    "libid": "800",
    "name": "CLC 800 C-MAN CML Main - Central Library Consortium",
    "address": "400 W. Johnstown Road",
    "city": "Gahanna",
    "state": "OH",
    "zip": 43230,
    "hub": "CMH",
    "route": 3003
  },
  {
    "id": 24,
    "libid": "800",
    "name": "CLC 800 C-MAR CML MAR-FRK - Central Library Consortium",
    "address": "400 W. Johnstown Road",
    "city": "Gahanna",
    "state": "OH",
    "zip": 43230,
    "hub": "CMH",
    "route": 3003
  },
  {
    "id": 25,
    "libid": "800",
    "name": "CLC 800 C-MLK CML MLK - Central Library Consortium",
    "address": "400 W. Johnstown Road",
    "city": "Gahanna",
    "state": "OH",
    "zip": 43230,
    "hub": "CMH",
    "route": 3003
  },
  {
    "id": 26,
    "libid": "800",
    "name": "CLC 800 C-NDW CML NA DU - Central Library Consortium",
    "address": "400 W. Johnstown Road",
    "city": "Gahanna",
    "state": "OH",
    "zip": 43230,
    "hub": "CMH",
    "route": 3003
  },
  {
    "id": 27,
    "libid": "800",
    "name": "CLC 800 C-NEW CML N Albany - Central Library Consortium",
    "address": "400 W. Johnstown Road",
    "city": "Gahanna",
    "state": "OH",
    "zip": 43230,
    "hub": "CMH",
    "route": 3003
  },
  {
    "id": 28,
    "libid": "800",
    "name": "CLC 800 C-NLT CML NOR LTS - Central Library Consortium",
    "address": "400 W. Johnstown Road",
    "city": "Gahanna",
    "state": "OH",
    "zip": 43230,
    "hub": "CMH",
    "route": 3003
  },
  {
    "id": 29,
    "libid": "800",
    "name": "CLC 800 C-NLW CML NLTS DU - Central Library Consortium",
    "address": "400 W. Johnstown Road",
    "city": "Gahanna",
    "state": "OH",
    "zip": 43230,
    "hub": "CMH",
    "route": 3003
  },
  {
    "id": 30,
    "libid": "800",
    "name": "CLC 800 C-NOR CML NORSIDE - Central Library Consortium",
    "address": "400 W. Johnstown Road",
    "city": "Gahanna",
    "state": "OH",
    "zip": 43230,
    "hub": "CMH",
    "route": 3003
  },
  {
    "id": 31,
    "libid": "800",
    "name": "CLC 800 C-PAR CML PARSONS - Central Library Consortium",
    "address": "400 W. Johnstown Road",
    "city": "Gahanna",
    "state": "OH",
    "zip": 43230,
    "hub": "CMH",
    "route": 3003
  },
  {
    "id": 32,
    "libid": "800",
    "name": "CLC 800 C-PDW CML PAR DU - Central Library Consortium",
    "address": "400 W. Johnstown Road",
    "city": "Gahanna",
    "state": "OH",
    "zip": 43230,
    "hub": "CMH",
    "route": 3003
  },
  {
    "id": 33,
    "libid": "800",
    "name": "CLC 800 C-REY CML REY - Central Library Consortium",
    "address": "400 W. Johnstown Road",
    "city": "Gahanna",
    "state": "OH",
    "zip": 43230,
    "hub": "CMH",
    "route": 3003
  },
  {
    "id": 34,
    "libid": "800",
    "name": "CLC 800 C-SDW CML SHEP DU - Central Library Consortium",
    "address": "400 W. Johnstown Road",
    "city": "Gahanna",
    "state": "OH",
    "zip": 43230,
    "hub": "CMH",
    "route": 3003
  },
  {
    "id": 35,
    "libid": "800",
    "name": "CLC 800 C-SHP CML Shepard - Central Library Consortium",
    "address": "400 W. Johnstown Road",
    "city": "Gahanna",
    "state": "OH",
    "zip": 43230,
    "hub": "CMH",
    "route": 3003
  },
  {
    "id": 36,
    "libid": "800",
    "name": "CLC 800 C-SOE CML S EAST - Central Library Consortium",
    "address": "400 W. Johnstown Road",
    "city": "Gahanna",
    "state": "OH",
    "zip": 43230,
    "hub": "CMH",
    "route": 3003
  },
  {
    "id": 37,
    "libid": "800",
    "name": "CLC 800 C-SOH CML S High - Central Library Consortium",
    "address": "400 W. Johnstown Road",
    "city": "Gahanna",
    "state": "OH",
    "zip": 43230,
    "hub": "CMH",
    "route": 3003
  },
  {
    "id": 38,
    "libid": "800",
    "name": "CLC 800 C-WDW CML WHALL DU - Central Library Consortium",
    "address": "400 W. Johnstown Road",
    "city": "Gahanna",
    "state": "OH",
    "zip": 43230,
    "hub": "CMH",
    "route": 3003
  },
  {
    "id": 39,
    "libid": "800",
    "name": "CLC 800 C-WHE CML WHET - Central Library Consortium",
    "address": "400 W. Johnstown Road",
    "city": "Gahanna",
    "state": "OH",
    "zip": 43230,
    "hub": "CMH",
    "route": 3003
  },
  {
    "id": 40,
    "libid": "800",
    "name": "CLC 800 C-WHI CML WHALL - Central Library Consortium",
    "address": "400 W. Johnstown Road",
    "city": "Gahanna",
    "state": "OH",
    "zip": 43230,
    "hub": "CMH",
    "route": 3003
  },
  {
    "id": 41,
    "libid": "800",
    "name": "CLC 800 D-ORA DEL - Central Library Consortium",
    "address": "400 W. Johnstown Road",
    "city": "Gahanna",
    "state": "OH",
    "zip": 43230,
    "hub": "CMH",
    "route": 3003
  },
  {
    "id": 42,
    "libid": "800",
    "name": "CLC 800 D-ORW DEL - Central Library Consortium",
    "address": "400 W. Johnstown Road",
    "city": "Gahanna",
    "state": "OH",
    "zip": 43230,
    "hub": "CMH",
    "route": 3003
  },
  {
    "id": 43,
    "libid": "800",
    "name": "CLC 800 D-OST DEL - Central Library Consortium",
    "address": "400 W. Johnstown Road",
    "city": "Gahanna",
    "state": "OH",
    "zip": 43230,
    "hub": "CMH",
    "route": 3003
  },
  {
    "id": 44,
    "libid": "800",
    "name": "CLC 800 D-OUT DEL - Central Library Consortium",
    "address": "400 W. Johnstown Road",
    "city": "Gahanna",
    "state": "OH",
    "zip": 43230,
    "hub": "CMH",
    "route": 3003
  },
  {
    "id": 45,
    "libid": "800",
    "name": "CLC 800 D-POW DEL - Central Library Consortium",
    "address": "400 W. Johnstown Road",
    "city": "Gahanna",
    "state": "OH",
    "zip": 43230,
    "hub": "CMH",
    "route": 3003
  },
  {
    "id": 46,
    "libid": "800",
    "name": "CLC 800 Delaware County District Library - Central Library Consortium",
    "address": "400 W. Johnstown Road",
    "city": "Gahanna",
    "state": "OH",
    "zip": 43230,
    "hub": "CMH",
    "route": 3003
  },
  {
    "id": 47,
    "libid": "800",
    "name": "CLC 800 FCDL FCD MAIN - Central Library Consortium",
    "address": "400 W. Johnstown Road",
    "city": "Gahanna",
    "state": "OH",
    "zip": 43230,
    "hub": "CMH",
    "route": 3003
  },
  {
    "id": 48,
    "libid": "800",
    "name": "CLC 800 FCDLB FCD BREM - Central Library Consortium",
    "address": "400 W. Johnstown Road",
    "city": "Gahanna",
    "state": "OH",
    "zip": 43230,
    "hub": "CMH",
    "route": 3003
  },
  {
    "id": 49,
    "libid": "800",
    "name": "CLC 800 FCDLBA FCD BALT - Central Library Consortium",
    "address": "400 W. Johnstown Road",
    "city": "Gahanna",
    "state": "OH",
    "zip": 43230,
    "hub": "CMH",
    "route": 3003
  },
  {
    "id": 50,
    "libid": "800",
    "name": "CLC 800 FCDLBA FCD BALT - Central Library Consortium",
    "address": "400 W. Johnstown Road",
    "city": "Gahanna",
    "state": "OH",
    "zip": 43230,
    "hub": "CMH",
    "route": 3003
  },
  {
    "id": 51,
    "libid": "800",
    "name": "CLC 800 FCDLJ FCD JOHN - Central Library Consortium",
    "address": "400 W. Johnstown Road",
    "city": "Gahanna",
    "state": "OH",
    "zip": 43230,
    "hub": "CMH",
    "route": 3003
  },
  {
    "id": 52,
    "libid": "800",
    "name": "CLC 800 FCDLNW FCD NWEST - Central Library Consortium",
    "address": "400 W. Johnstown Road",
    "city": "Gahanna",
    "state": "OH",
    "zip": 43230,
    "hub": "CMH",
    "route": 3003
  },
  {
    "id": 53,
    "libid": "800",
    "name": "CLC 800 GHPL Grandview Hts - Central Library Consortium",
    "address": "400 W. Johnstown Road",
    "city": "Gahanna",
    "state": "OH",
    "zip": 43230,
    "hub": "CMH",
    "route": 3003
  },
  {
    "id": 54,
    "libid": "800",
    "name": "CLC 800 GRPL GRA CLC - Central Library Consortium",
    "address": "400 W. Johnstown Road",
    "city": "Gahanna",
    "state": "OH",
    "zip": 43230,
    "hub": "CMH",
    "route": 3003
  },
  {
    "id": 55,
    "libid": "800",
    "name": "CLC 800 LPL London CLC - Central Library Consortium",
    "address": "400 W. Johnstown Road",
    "city": "Gahanna",
    "state": "OH",
    "zip": 43230,
    "hub": "CMH",
    "route": 3003
  },
  {
    "id": 56,
    "libid": "800",
    "name": "CLC 800 MPCL Plain CLC - Central Library Consortium",
    "address": "400 W. Johnstown Road",
    "city": "Gahanna",
    "state": "OH",
    "zip": 43230,
    "hub": "CMH",
    "route": 3003
  },
  {
    "id": 57,
    "libid": "800",
    "name": "CLC 800 MPLM Marysville - Central Library Consortium",
    "address": "400 W. Johnstown Road",
    "city": "Gahanna",
    "state": "OH",
    "zip": 43230,
    "hub": "CMH",
    "route": 3003
  },
  {
    "id": 58,
    "libid": "800",
    "name": "CLC 800 MPLR MPL Raymond - Central Library Consortium",
    "address": "400 W. Johnstown Road",
    "city": "Gahanna",
    "state": "OH",
    "zip": 43230,
    "hub": "CMH",
    "route": 3003
  },
  {
    "id": 59,
    "libid": "800",
    "name": "CLC 800 PATPL PAT - Central Library Consortium",
    "address": "400 W. Johnstown Road",
    "city": "Gahanna",
    "state": "OH",
    "zip": 43230,
    "hub": "CMH",
    "route": 3003
  },
  {
    "id": 60,
    "libid": "800",
    "name": "CLC 800 PCLM Pickaway Main - Central Library Consortium",
    "address": "400 W. Johnstown Road",
    "city": "Gahanna",
    "state": "OH",
    "zip": 43230,
    "hub": "CMH",
    "route": 3003
  },
  {
    "id": 61,
    "libid": "800",
    "name": "CLC 800 PCLOS Pickaway Out - Central Library Consortium",
    "address": "400 W. Johnstown Road",
    "city": "Gahanna",
    "state": "OH",
    "zip": 43230,
    "hub": "CMH",
    "route": 3003
  },
  {
    "id": 62,
    "libid": "800",
    "name": "CLC 800 PCLYB OCL Younkin - Central Library Consortium",
    "address": "400 W. Johnstown Road",
    "city": "Gahanna",
    "state": "OH",
    "zip": 43230,
    "hub": "CMH",
    "route": 3003
  },
  {
    "id": 63,
    "libid": "800",
    "name": "CLC 800 PLKM PPL LKR - Central Library Consortium",
    "address": "400 W. Johnstown Road",
    "city": "Gahanna",
    "state": "OH",
    "zip": 43230,
    "hub": "CMH",
    "route": 3003
  },
  {
    "id": 64,
    "libid": "800",
    "name": "CLC 800 PLKS PPL SYC LKR - Central Library Consortium",
    "address": "400 W. Johnstown Road",
    "city": "Gahanna",
    "state": "OH",
    "zip": 43230,
    "hub": "CMH",
    "route": 3003
  },
  {
    "id": 65,
    "libid": "800",
    "name": "CLC 800 PPLM PPL Main - Central Library Consortium",
    "address": "400 W. Johnstown Road",
    "city": "Gahanna",
    "state": "OH",
    "zip": 43230,
    "hub": "CMH",
    "route": 3003
  },
  {
    "id": 66,
    "libid": "800",
    "name": "CLC 800 PPLSP PPL SYC - Central Library Consortium",
    "address": "400 W. Johnstown Road",
    "city": "Gahanna",
    "state": "OH",
    "zip": 43230,
    "hub": "CMH",
    "route": 3003
  },
  {
    "id": 67,
    "libid": "800",
    "name": "CLC 800 SPLGC SPL GR CITY - Central Library Consortium",
    "address": "400 W. Johnstown Road",
    "city": "Gahanna",
    "state": "OH",
    "zip": 43230,
    "hub": "CMH",
    "route": 3003
  },
  {
    "id": 68,
    "libid": "800",
    "name": "CLC 800 SPLWL SPL Westland - Central Library Consortium",
    "address": "400 W. Johnstown Road",
    "city": "Gahanna",
    "state": "OH",
    "zip": 43230,
    "hub": "CMH",
    "route": 3003
  },
  {
    "id": 69,
    "libid": "800",
    "name": "CLC 800 UA-L UA Lane Road - Central Library Consortium",
    "address": "400 W. Johnstown Road",
    "city": "Gahanna",
    "state": "OH",
    "zip": 43230,
    "hub": "CMH",
    "route": 3003
  },
  {
    "id": 70,
    "libid": "800",
    "name": "CLC 800 UA-MP US Miller Pk - Central Library Consortium",
    "address": "400 W. Johnstown Road",
    "city": "Gahanna",
    "state": "OH",
    "zip": 43230,
    "hub": "CMH",
    "route": 3003
  },
  {
    "id": 71,
    "libid": "800",
    "name": "CLC 800 UA-T UA Tremont Rd - Central Library Consortium",
    "address": "400 W. Johnstown Road",
    "city": "Gahanna",
    "state": "OH",
    "zip": 43230,
    "hub": "CMH",
    "route": 3003
  },
  {
    "id": 72,
    "libid": "800",
    "name": "CLC 800 WAGM Wagnalls Mem - Central Library Consortium",
    "address": "400 W. Johnstown Road",
    "city": "Gahanna",
    "state": "OH",
    "zip": 43230,
    "hub": "CMH",
    "route": 3003
  },
  {
    "id": 73,
    "libid": "800",
    "name": "CLC 800 WNDU WL NWEST DU - Central Library Consortium",
    "address": "400 W. Johnstown Road",
    "city": "Gahanna",
    "state": "OH",
    "zip": 43230,
    "hub": "CMH",
    "route": 3003
  },
  {
    "id": 74,
    "libid": "800",
    "name": "CLC 800 WNWL WL Northwest - Central Library Consortium",
    "address": "400 W. Johnstown Road",
    "city": "Gahanna",
    "state": "OH",
    "zip": 43230,
    "hub": "CMH",
    "route": 3003
  },
  {
    "id": 75,
    "libid": "800",
    "name": "CLC 800 WOWL WL Old Wor - Central Library Consortium",
    "address": "400 W. Johnstown Road",
    "city": "Gahanna",
    "state": "OH",
    "zip": 43230,
    "hub": "CMH",
    "route": 3003
  },
  {
    "id": 76,
    "libid": "800",
    "name": "CLC 800 WWLM WL Mobile - Central Library Consortium",
    "address": "400 W. Johnstown Road",
    "city": "Gahanna",
    "state": "OH",
    "zip": 43230,
    "hub": "CMH",
    "route": 3003
  },
  {
    "id": 77,
    "libid": "800",
    "name": "CLC 800 WWPK WL WOR Park - Central Library Consortium",
    "address": "400 W. Johnstown Road",
    "city": "Gahanna",
    "state": "OH",
    "zip": 43230,
    "hub": "CMH",
    "route": 3003
  },
  {
    "id": 78,
    "libid": "427",
    "name": "Capital University - Law",
    "address": "303 E Broad St",
    "city": "Columbus",
    "state": "OH",
    "zip": 43215,
    "hub": "CMH",
    "route": 3003
  },
  {
    "id": 79,
    "libid": "407",
    "name": "Capital University - Main",
    "address": "2301 E Main St",
    "city": "Columbus",
    "state": "OH",
    "zip": 43209,
    "hub": "CMH",
    "route": 3003
  },
  {
    "id": 80,
    "libid": "553",
    "name": "Case Western Reserve University - Health",
    "address": "11000 Euclid Ave",
    "city": "Cleveland",
    "state": "OH",
    "zip": 44106,
    "hub": "CLE",
    "route": 4006
  },
  {
    "id": 81,
    "libid": "554",
    "name": "Case Western Reserve University - Law",
    "address": "11075 East Blvd",
    "city": "Cleveland",
    "state": "OH",
    "zip": 44106,
    "hub": "CLE",
    "route": 4006
  },
  {
    "id": 82,
    "libid": "555",
    "name": "Case Western Reserve University - MSASS",
    "address": "11235 Bellflower Rd",
    "city": "Cleveland",
    "state": "OH",
    "zip": 44106,
    "hub": "CLE",
    "route": 4006
  },
  {
    "id": 83,
    "libid": "203",
    "name": "Case Western Reserve University - Main",
    "address": "11055 Euclid Ave",
    "city": "Cleveland",
    "state": "OH",
    "zip": 44106,
    "hub": "CLE",
    "route": 4006
  },
  {
    "id": 84,
    "libid": "403",
    "name": "Cedarville University",
    "address": "251 N Main St",
    "city": "Cedarville",
    "state": "OH",
    "zip": 45314,
    "hub": "DAY",
    "route": 2004
  },
  {
    "id": 85,
    "libid": "800",
    "name": "Central Library Consortium (CLC)",
    "address": "400 W. Johnstown Road",
    "city": "Gahanna",
    "state": "OH",
    "zip": 43230,
    "hub": "CMH",
    "route": 3003
  },
  {
    "id": 86,
    "libid": "220",
    "name": "Central State University - Dayton",
    "address": "840 Germantown St",
    "city": "Dayton",
    "state": "OH",
    "zip": 45402,
    "hub": "DAY",
    "route": 2002
  },
  {
    "id": 87,
    "libid": "204",
    "name": "Central State University - Main",
    "address": "1400 Brush Row Rd",
    "city": "Wilberforce",
    "state": "OH",
    "zip": 45384,
    "hub": "DAY",
    "route": 2004
  },
  {
    "id": 88,
    "libid": "883",
    "name": "Cincinnati & Hamilton County PL",
    "address": "800 Vine St",
    "city": "Cincinnati",
    "state": "OH",
    "zip": 45202,
    "hub": "CVG",
    "route": 1005
  },
  {
    "id": 89,
    "libid": "305",
    "name": "Cincinnati State Technical and Community College",
    "address": "3520 Central Pkwy",
    "city": "Cincinnati",
    "state": "OH",
    "zip": 45223,
    "hub": "CVG",
    "route": 1005
  },
  {
    "id": 90,
    "libid": "836",
    "name": "Clark County Public Library",
    "address": "201 S Fountain Ave",
    "city": "Springfield",
    "state": "OH",
    "zip": 45506,
    "hub": "DAY",
    "route": 2003
  },
  {
    "id": 91,
    "libid": "333",
    "name": "Clark State College - Greene",
    "address": "3775 Pentagon Blvd",
    "city": "Beavercreek",
    "state": "OH",
    "zip": 45431,
    "hub": "DAY",
    "route": 2004
  },
  {
    "id": 92,
    "libid": "303",
    "name": "Clark State College - Main",
    "address": "570 E Leffel Ln",
    "city": "Springfield",
    "state": "OH",
    "zip": 45505,
    "hub": "DAY",
    "route": 2003
  },
  {
    "id": 93,
    "libid": "887",
    "name": "Clermont County Public Library",
    "address": "5920 Buckwheat Rd",
    "city": "Milford",
    "state": "OH",
    "zip": 45150,
    "hub": "CVG",
    "route": 1003
  },
  {
    "id": 94,
    "libid": "432",
    "name": "Cleveland Clinic",
    "address": "9500 Euclid Ave",
    "city": "Cleveland",
    "state": "OH",
    "zip": 44195,
    "hub": "CLE",
    "route": 4006
  },
  {
    "id": 95,
    "libid": "557",
    "name": "Cleveland Institute of Art",
    "address": "11610 Euclid Ave",
    "city": "Cleveland",
    "state": "OH",
    "zip": 44106,
    "hub": "CLE",
    "route": 4006
  },
  {
    "id": 96,
    "libid": "559",
    "name": "Cleveland Institute of Music",
    "address": "11021 East Blvd",
    "city": "Cleveland",
    "state": "OH",
    "zip": 44106,
    "hub": "CLE",
    "route": 4006
  },
  {
    "id": 97,
    "libid": "507",
    "name": "Cleveland State University - Law",
    "address": "1801 Euclid Ave",
    "city": "Cleveland",
    "state": "OH",
    "zip": 44115,
    "hub": "CLE",
    "route": 4000
  },
  {
    "id": 98,
    "libid": "206",
    "name": "Cleveland State University - Main",
    "address": "1860 E 22nd St",
    "city": "Cleveland",
    "state": "OH",
    "zip": 44114,
    "hub": "CLE",
    "route": 4000
  },
  {
    "id": 99,
    "libid": "707",
    "name": "College of Wooster",
    "address": "1140 Beall Ave",
    "city": "Wooster",
    "state": "OH",
    "zip": 44691,
    "hub": "CLE",
    "route": 4002
  },
  {
    "id": 100,
    "libid": "873",
    "name": "Columbiana Public Library",
    "address": "332 N Middle St",
    "city": "Columbiana",
    "state": "OH",
    "zip": 44408,
    "hub": "CLE",
    "route": 4003
  },
  {
    "id": 101,
    "libid": "608",
    "name": "Columbus College of Art and Design",
    "address": "60 Cleveland Ave",
    "city": "Columbus",
    "state": "OH",
    "zip": 43215,
    "hub": "CMH",
    "route": 3003
  },
  {
    "id": 102,
    "libid": "350",
    "name": "Columbus State Community College - Delaware",
    "address": "5100 Cornerstone Dr",
    "city": "Delaware",
    "state": "OH",
    "zip": 43015,
    "hub": "CMH",
    "route": 3004
  },
  {
    "id": 103,
    "libid": "304",
    "name": "Columbus State Community College - Main",
    "address": "550 E Spring St",
    "city": "Columbus",
    "state": "OH",
    "zip": 43215,
    "hub": "CMH",
    "route": 3003
  },
  {
    "id": 104,
    "libid": "323",
    "name": "Cuyahoga Community College - Western",
    "address": "11000 W Pleasant Valley Rd",
    "city": "Cleveland",
    "state": "OH",
    "zip": 44130,
    "hub": "CLE",
    "route": 4002
  },
  {
    "id": 105,
    "libid": "326",
    "name": "Cuyahoga Community College - Westshore",
    "address": "31001 Clemens Rd",
    "city": "Westlake",
    "state": "OH",
    "zip": 44145,
    "hub": "CLE",
    "route": 4008
  },
  {
    "id": 106,
    "libid": "324",
    "name": "Cuyahoga Community College - Eastern",
    "address": "4250 Richmond Rd",
    "city": "Highland Hills",
    "state": "OH",
    "zip": 44122,
    "hub": "CLE",
    "route": 4006
  },
  {
    "id": 107,
    "libid": "322",
    "name": "Cuyahoga Community College - Metro",
    "address": "2900 Community College Ave",
    "city": "Cleveland",
    "state": "OH",
    "zip": 44115,
    "hub": "CLE",
    "route": 4000
  },
  {
    "id": 108,
    "libid": "452",
    "name": "Cuyahoga County Public Library - Bay Village Branch",
    "address": "502 Cahoon Road",
    "city": "Bay Village",
    "state": "OH",
    "zip": 44140,
    "hub": "CLE",
    "route": 4008
  },
  {
    "id": 109,
    "libid": "454",
    "name": "Cuyahoga County Public Library - Beachwood Branch",
    "address": "25501 Shaker Blvd.",
    "city": "Beachwood",
    "state": "OH",
    "zip": 44122,
    "hub": "CLE",
    "route": 4006
  },
  {
    "id": 110,
    "libid": "456",
    "name": "Cuyahoga County Public Library - Berea Branch",
    "address": "7 Berea Commons",
    "city": "Berea",
    "state": "OH",
    "zip": 44017,
    "hub": "CLE",
    "route": 4002
  },
  {
    "id": 111,
    "libid": "458",
    "name": "Cuyahoga County Public Library - Brecksville Branch",
    "address": "9089 Brecksville Rd.",
    "city": "Brecksville",
    "state": "OH",
    "zip": 44141,
    "hub": "CLE",
    "route": 4005
  },
  {
    "id": 112,
    "libid": "460",
    "name": "Cuyahoga County Public Library - Brook Park Branch",
    "address": "6155 Engle Rd.",
    "city": "Brook Park",
    "state": "OH",
    "zip": 44142,
    "hub": "CLE",
    "route": 4002
  },
  {
    "id": 113,
    "libid": "462",
    "name": "Cuyahoga County Public Library - Brooklyn Branch",
    "address": "4480 Ridge Rd.",
    "city": "Brooklyn",
    "state": "OH",
    "zip": 44144,
    "hub": "CLE",
    "route": 4005
  },
  {
    "id": 114,
    "libid": "464",
    "name": "Cuyahoga County Public Library - Chagrin Falls Branch",
    "address": "100 E. Orange St.",
    "city": "Chagrin Falls",
    "state": "OH",
    "zip": 44022,
    "hub": "CLE",
    "route": 4006
  },
  {
    "id": 115,
    "libid": "442",
    "name": "Cuyahoga County Public Library - Fairview Park Branch",
    "address": "21255 Lorain Road",
    "city": "Fairview Park",
    "state": "OH",
    "zip": 44126,
    "hub": "CLE",
    "route": 4008
  },
  {
    "id": 116,
    "libid": "470",
    "name": "Cuyahoga County Public Library - Garfield Heights Branch",
    "address": "5409 Turney Rd.",
    "city": "Garfield Heights",
    "state": "OH",
    "zip": 44125,
    "hub": "CLE",
    "route": 4004
  },
  {
    "id": 117,
    "libid": "472",
    "name": "Cuyahoga County Public Library - Gates Mills Library",
    "address": "1491 Chagrin River Rd.",
    "city": "Gates Mills",
    "state": "OH",
    "zip": 44040,
    "hub": "CLE",
    "route": 4006
  },
  {
    "id": 118,
    "libid": "474",
    "name": "Cuyahoga County Public Library - Independence Branch",
    "address": "6361 Selig Dr.",
    "city": "Independence",
    "state": "OH",
    "zip": 44131,
    "hub": "CLE",
    "route": 4004
  },
  {
    "id": 119,
    "libid": "444",
    "name": "Cuyahoga County Public Library - Maple Heights Branch",
    "address": "5225 Library Lane",
    "city": "Maple Heights",
    "state": "OH",
    "zip": 44137,
    "hub": "CLE",
    "route": 4004
  },
  {
    "id": 120,
    "libid": "446",
    "name": "Cuyahoga County Public Library - Mayfield Branch",
    "address": "500 SOM Center Rd.",
    "city": "Mayfield Village",
    "state": "OH",
    "zip": 44143,
    "hub": "CLE",
    "route": 4006
  },
  {
    "id": 121,
    "libid": "451",
    "name": "Cuyahoga County Public Library - Metro Health",
    "address": "2111 Snow Road",
    "city": "Parma",
    "state": "OH",
    "zip": 44134,
    "hub": "CLE",
    "route": 4002
  },
  {
    "id": 122,
    "libid": "480",
    "name": "Cuyahoga County Public Library - Middleburg Heights Branch",
    "address": "16699 Bagley Rd.",
    "city": "Middleburg Heights",
    "state": "OH",
    "zip": 44130,
    "hub": "CLE",
    "route": 4005
  },
  {
    "id": 123,
    "libid": "482",
    "name": "Cuyahoga County Public Library - North Olmsted Branch",
    "address": "27403 Lorain Rd.",
    "city": "North Olmsted",
    "state": "OH",
    "zip": 44070,
    "hub": "CLE",
    "route": 4008
  },
  {
    "id": 124,
    "libid": "484",
    "name": "Cuyahoga County Public Library - North Royalton Branch",
    "address": "5071 Wailings Rd.",
    "city": "North Royalton",
    "state": "OH",
    "zip": 44133,
    "hub": "CLE",
    "route": 4002
  },
  {
    "id": 125,
    "libid": "486",
    "name": "Cuyahoga County Public Library - Olmsted Falls Branch",
    "address": "8100 Mapleway Dr.",
    "city": "Olmsted Falls",
    "state": "OH",
    "zip": 44138,
    "hub": "CLE",
    "route": 4002
  },
  {
    "id": 126,
    "libid": "488",
    "name": "Cuyahoga County Public Library - Orange Branch",
    "address": "31975 Chagrin Blvd.",
    "city": "Pepper Pike",
    "state": "OH",
    "zip": 44124,
    "hub": "CLE",
    "route": 4006
  },
  {
    "id": 127,
    "libid": "490",
    "name": "Cuyahoga County Public Library - Parma Heights Branch",
    "address": "6206 Pearl Rd.",
    "city": "Parma Heights",
    "state": "OH",
    "zip": 44130,
    "hub": "CLE",
    "route": 4002
  },
  {
    "id": 128,
    "libid": "440",
    "name": "Cuyahoga County Public Library - Parma-Snow Branch",
    "address": "2121 Snow Road",
    "city": "Parma",
    "state": "OH",
    "zip": 44134,
    "hub": "CLE",
    "route": 4002
  },
  {
    "id": 129,
    "libid": "448",
    "name": "Cuyahoga County Public Library - Parma-South Branch",
    "address": "6996 Powers Blvd.",
    "city": "Parma",
    "state": "OH",
    "zip": 44129,
    "hub": "CLE",
    "route": 4002
  },
  {
    "id": 130,
    "libid": "496",
    "name": "Cuyahoga County Public Library - Richmond Heights Library",
    "address": "449 Richmond Rd.",
    "city": "Richmond Heights",
    "state": "OH",
    "zip": 44143,
    "hub": "CLE",
    "route": 4006
  },
  {
    "id": 131,
    "libid": "498",
    "name": "Cuyahoga County Public Library - Solon Branch",
    "address": "34125 Portz Parkway",
    "city": "Solon",
    "state": "OH",
    "zip": 44139,
    "hub": "CLE",
    "route": 4003
  },
  {
    "id": 132,
    "libid": "468",
    "name": "Cuyahoga County Public Library - South Euclid-Lyndhurst",
    "address": "1876 S. Green Rd.",
    "city": "South Euclid",
    "state": "OH",
    "zip": 44121,
    "hub": "CLE",
    "route": 4006
  },
  {
    "id": 133,
    "libid": "476",
    "name": "Cuyahoga County Public Library - Southeast Branch",
    "address": "70 Columbus Rd.",
    "city": "Bedford",
    "state": "OH",
    "zip": 44146,
    "hub": "CLE",
    "route": 4004
  },
  {
    "id": 134,
    "libid": "478",
    "name": "Cuyahoga County Public Library - Strongsville Branch",
    "address": "18700 Westwood Dr.",
    "city": "Strongsville",
    "state": "OH",
    "zip": 44136,
    "hub": "CLE",
    "route": 4005
  },
  {
    "id": 135,
    "libid": "492",
    "name": "Cuyahoga County Public Library - Warrensville Branch",
    "address": "4415 Northfield Rd.",
    "city": "Warrensville",
    "state": "OH",
    "zip": 44128,
    "hub": "CLE",
    "route": 4004
  },
  {
    "id": 136,
    "libid": "499",
    "name": "Cuyahoga Falls Public Library",
    "address": "2015 3rd St",
    "city": "Cuyahoga Falls",
    "state": "OH",
    "zip": 44221,
    "hub": "CLE",
    "route": 4005
  },
  {
    "id": 137,
    "libid": "260",
    "name": "Dayton Metro Library",
    "address": "215 E 3rd St",
    "city": "Dayton",
    "state": "OH",
    "zip": 45402,
    "hub": "DAY",
    "route": 2002
  },
  {
    "id": 138,
    "libid": "609",
    "name": "Defiance College",
    "address": "201 College Pl",
    "city": "Defiance",
    "state": "OH",
    "zip": 43512,
    "hub": "TOL",
    "route": 5002
  },
  {
    "id": 139,
    "libid": "701",
    "name": "Denison University",
    "address": "400 West Loop",
    "city": "Granville",
    "state": "OH",
    "zip": 43023,
    "hub": "CMH",
    "route": 3003
  },
  {
    "id": 140,
    "libid": "874",
    "name": "East Palestine Memorial Library",
    "address": "309 N Market St",
    "city": "East Palestine",
    "state": "OH",
    "zip": 44413,
    "hub": "CLE",
    "route": 4003
  },
  {
    "id": 141,
    "libid": "308",
    "name": "Eastern Gateway Community College - Main",
    "address": "4000 Sunset Blvd",
    "city": "Steubenville",
    "state": "OH",
    "zip": 43952,
    "hub": "CLE",
    "route": 4001
  },
  {
    "id": 142,
    "libid": "319",
    "name": "Eastern Gateway Community College - Youngstown",
    "address": "101 E Federal St",
    "city": "Youngstown",
    "state": "OH",
    "zip": 44503,
    "hub": "CLE",
    "route": 4003
  },
  {
    "id": 143,
    "libid": "366",
    "name": "Edison State Community College - Darke",
    "address": "601 Wagner Ave",
    "city": "Greenville",
    "state": "OH",
    "zip": 45331,
    "hub": "DAY",
    "route": 2001
  },
  {
    "id": 144,
    "libid": "306",
    "name": "Edison State Community College - Main",
    "address": "1973 Edison Dr",
    "city": "Piqua",
    "state": "OH",
    "zip": 45356,
    "hub": "DAY",
    "route": 2003
  },
  {
    "id": 145,
    "libid": "613",
    "name": "Franciscan University of Steubenville",
    "address": "1235 University Blvd",
    "city": "Steubenville",
    "state": "OH",
    "zip": 43952,
    "hub": "CLE",
    "route": 4001
  },
  {
    "id": 146,
    "libid": "430",
    "name": "Franklin University",
    "address": "303 S Grant Ave",
    "city": "Columbus",
    "state": "OH",
    "zip": 43215,
    "hub": "CMH",
    "route": 3003
  },
  {
    "id": 147,
    "libid": "699",
    "name": "Greene County Public Library",
    "address": "2656 Indian Ripple Rd",
    "city": "Beavercreek",
    "state": "OH",
    "zip": 45440,
    "hub": "DAY",
    "route": 2004
  },
  {
    "id": 148,
    "libid": "615",
    "name": "Heidelberg University",
    "address": "10 Greenfield St",
    "city": "Tiffin",
    "state": "OH",
    "zip": 44883,
    "hub": "TOL",
    "route": 5001
  },
  {
    "id": 149,
    "libid": "411",
    "name": "Hiram College",
    "address": "11694 Hayden Ave",
    "city": "Hiram",
    "state": "OH",
    "zip": 44234,
    "hub": "CLE",
    "route": 4006
  },
  {
    "id": 150,
    "libid": "307",
    "name": "Hocking College",
    "address": "3301 Hocking Pkwy",
    "city": "Nelsonville",
    "state": "OH",
    "zip": 45764,
    "hub": "CMH",
    "route": 3006
  },
  {
    "id": 151,
    "libid": "413",
    "name": "John Carroll University",
    "address": "1 John Carroll Blvd",
    "city": "Cleveland",
    "state": "OH",
    "zip": 44118,
    "hub": "CLE",
    "route": 4006
  },
  {
    "id": 152,
    "libid": "513",
    "name": "Kent State University - Ashtabula",
    "address": "3300 Lake Rd W",
    "city": "Ashtabula",
    "state": "OH",
    "zip": 44004,
    "hub": "CLE",
    "route": 4007
  },
  {
    "id": 153,
    "libid": "514",
    "name": "Kent State University - East Liverpool",
    "address": "400 E 4th St",
    "city": "East Liverpool",
    "state": "OH",
    "zip": 43920,
    "hub": "CLE",
    "route": 4001
  },
  {
    "id": 154,
    "libid": "512",
    "name": "Kent State University - Geauga",
    "address": "14111 Claridon Troy Rd",
    "city": "Burton",
    "state": "OH",
    "zip": 44021,
    "hub": "CLE",
    "route": 4006
  },
  {
    "id": 155,
    "libid": "208",
    "name": "Kent State University - Main",
    "address": "1125 Risman Dr",
    "city": "Kent",
    "state": "OH",
    "zip": 44242,
    "hub": "CLE",
    "route": 4003
  },
  {
    "id": 156,
    "libid": "566",
    "name": "Kent State University - Podiatry",
    "address": "6000 Rockside Woods Blvd N",
    "city": "Independence",
    "state": "OH",
    "zip": 44131,
    "hub": "CLE",
    "route": 4004
  },
  {
    "id": 157,
    "libid": "509",
    "name": "Kent State University - Salem",
    "address": "2491 OH-45 South",
    "city": "Salem",
    "state": "OH",
    "zip": 44460,
    "hub": "CLE",
    "route": 4003
  },
  {
    "id": 158,
    "libid": "510",
    "name": "Kent State University - Stark",
    "address": "6000 Frank Ave NW",
    "city": "North Canton",
    "state": "OH",
    "zip": 44720,
    "hub": "CLE",
    "route": 4005
  },
  {
    "id": 159,
    "libid": "508",
    "name": "Kent State University - Trumbull",
    "address": "4314 Mahoning Ave NW",
    "city": "Warren",
    "state": "OH",
    "zip": 44483,
    "hub": "CLE",
    "route": 4004
  },
  {
    "id": 160,
    "libid": "511",
    "name": "Kent State University - Tuscarawas",
    "address": "330 University Dr NE",
    "city": "New Philadelphia",
    "state": "OH",
    "zip": 44663,
    "hub": "CLE",
    "route": 4005
  },
  {
    "id": 161,
    "libid": "515",
    "name": "Kent State University - Twinsburg",
    "address": "10050 Ravenna Rd",
    "city": "Twinsburg",
    "state": "OH",
    "zip": 44087,
    "hub": "CLE",
    "route": 4003
  },
  {
    "id": 162,
    "libid": "703",
    "name": "Kenyon College",
    "address": "103 College Dr",
    "city": "Gambier",
    "state": "OH",
    "zip": 43022,
    "hub": "CMH",
    "route": 3008
  },
  {
    "id": 163,
    "libid": "675",
    "name": "Lake Erie College",
    "address": "391 W Washington St",
    "city": "Painesville",
    "state": "OH",
    "zip": 44077,
    "hub": "CLE",
    "route": 4007
  },
  {
    "id": 164,
    "libid": "309",
    "name": "Lakeland Community College",
    "address": "7700 Clocktower Dr",
    "city": "Willoughby",
    "state": "OH",
    "zip": 44094,
    "hub": "CLE",
    "route": 4007
  },
  {
    "id": 165,
    "libid": "839",
    "name": "Lane Libraries",
    "address": "1396 University Blvd",
    "city": "Hamilton",
    "state": "OH",
    "zip": 45011,
    "hub": "CVG",
    "route": 1005
  },
  {
    "id": 166,
    "libid": "876",
    "name": "Lepper Library",
    "address": "303 E Lincoln Way",
    "city": "Lisbon",
    "state": "OH",
    "zip": 44432,
    "hub": "CLE",
    "route": 4003
  },
  {
    "id": 167,
    "libid": "310",
    "name": "Lorain County Community College",
    "address": "1005 Abbe Rd N",
    "city": "Elyria",
    "state": "OH",
    "zip": 44035,
    "hub": "CLE",
    "route": 4008
  },
  {
    "id": 168,
    "libid": "830",
    "name": "Louisville Public Library",
    "address": "700 Lincoln Ave",
    "city": "Louisville",
    "state": "OH",
    "zip": 44641,
    "hub": "CLE",
    "route": 4003
  },
  {
    "id": 169,
    "libid": "616",
    "name": "Lourdes University",
    "address": "6832 Convent Blvd",
    "city": "Sylvania",
    "state": "OH",
    "zip": 43560,
    "hub": "TOL",
    "route": 5002
  },
  {
    "id": 170,
    "libid": "617",
    "name": "Malone University",
    "address": "2600 Cleveland Ave NW",
    "city": "Canton",
    "state": "OH",
    "zip": 44709,
    "hub": "CLE",
    "route": 4005
  },
  {
    "id": 171,
    "libid": "880",
    "name": "Mansfield Richland County Public Library",
    "address": "43 W 3rd St",
    "city": "Mansfield",
    "state": "OH",
    "zip": 44902,
    "hub": "CMH",
    "route": 3008
  },
  {
    "id": 172,
    "libid": "417",
    "name": "Marietta College",
    "address": "215 5th St",
    "city": "Marietta",
    "state": "OH",
    "zip": 45750,
    "hub": "CMH",
    "route": 3001
  },
  {
    "id": 173,
    "libid": "840",
    "name": "Massillon Public Library",
    "address": "208 Lincoln Way E",
    "city": "Massillon",
    "state": "OH",
    "zip": 44646,
    "hub": "CLE",
    "route": 4005
  },
  {
    "id": 174,
    "libid": "618",
    "name": "Mercy College of Ohio",
    "address": "2221 Madison Ave",
    "city": "Toledo",
    "state": "OH",
    "zip": 43604,
    "hub": "TOL",
    "route": 5001
  },
  {
    "id": 175,
    "libid": "642",
    "name": "Methodist Theological School",
    "address": "3081 Columbus Pike",
    "city": "Delaware",
    "state": "OH",
    "zip": 43015,
    "hub": "CMH",
    "route": 3004
  },
  {
    "id": 176,
    "libid": "517",
    "name": "Miami University - Hamilton",
    "address": "1601 University Blvd",
    "city": "Hamilton",
    "state": "OH",
    "zip": 45011,
    "hub": "CVG",
    "route": 1005
  },
  {
    "id": 177,
    "libid": "210",
    "name": "Miami University - Main",
    "address": "398 W Collins St",
    "city": "Oxford",
    "state": "OH",
    "zip": 45056,
    "hub": "CVG",
    "route": 1005
  },
  {
    "id": 178,
    "libid": "516",
    "name": "Miami University - Middletown",
    "address": "4200 N University Blvd",
    "city": "Middletown",
    "state": "OH",
    "zip": 45042,
    "hub": "DAY",
    "route": 2002
  },
  {
    "id": 179,
    "libid": "867",
    "name": "MidPointe Library System",
    "address": "125 S Broad St",
    "city": "Middletown",
    "state": "OH",
    "zip": 45044,
    "hub": "DAY",
    "route": 2002
  },
  {
    "id": 180,
    "libid": "619",
    "name": "Mount Carmel College of Nursing",
    "address": "127 S Davis Ave",
    "city": "Columbus",
    "state": "OH",
    "zip": 43222,
    "hub": "CMH",
    "route": 3003
  },
  {
    "id": 181,
    "libid": "404",
    "name": "Mount Saint Joseph University",
    "address": "5701 Delhi Rd",
    "city": "Cincinnati",
    "state": "OH",
    "zip": 45233,
    "hub": "CVG",
    "route": 1005
  },
  {
    "id": 182,
    "libid": "601",
    "name": "Mount St. Mary\u2019s Seminary & School of Theology",
    "address": "6616 Beechmont Ave",
    "city": "Cincinnati",
    "state": "OH",
    "zip": 45230,
    "hub": "CVG",
    "route": 1002
  },
  {
    "id": 183,
    "libid": "408",
    "name": "Mount Vernon Nazarene University",
    "address": "800 Martinsburg Rd",
    "city": "Mount Vernon",
    "state": "OH",
    "zip": 43050,
    "hub": "CMH",
    "route": 3008
  },
  {
    "id": 184,
    "libid": "801",
    "name": "Muskingum County Library",
    "address": "220 N 5th St",
    "city": "Zanesville",
    "state": "OH",
    "zip": 43701,
    "hub": "CMH",
    "route": 3001
  },
  {
    "id": 185,
    "libid": "623",
    "name": "Muskingum University",
    "address": "260 Stadium Dr. ",
    "city": "New Concord",
    "state": "OH",
    "zip": 43762,
    "hub": "CMH",
    "route": 3001
  },
  {
    "id": 186,
    "libid": "900",
    "name": "Northeast Depository",
    "address": "4209 Route 44",
    "city": "Rootstown",
    "state": "OH",
    "zip": 44272,
    "hub": "CLE",
    "route": 4004
  },
  {
    "id": 187,
    "libid": "211",
    "name": "Northeast Ohio Medical University",
    "address": "4209 Route 44",
    "city": "Rootstown",
    "state": "OH",
    "zip": 44272,
    "hub": "CLE",
    "route": 4004
  },
  {
    "id": 188,
    "libid": "902",
    "name": "Northwest Depository",
    "address": "1655 N Wilkinson Way",
    "city": "Perrysburg",
    "state": "OH",
    "zip": 43551,
    "hub": "TOL",
    "route": 5003
  },
  {
    "id": 189,
    "libid": "311",
    "name": "Northwest State Community College",
    "address": "22600 State Route 34",
    "city": "Archbold",
    "state": "OH",
    "zip": 43502,
    "hub": "TOL",
    "route": 5002
  },
  {
    "id": 190,
    "libid": "418",
    "name": "Notre Dame College",
    "address": "4545 College Rd",
    "city": "Cleveland",
    "state": "OH",
    "zip": 44121,
    "hub": "CLE",
    "route": 4006
  },
  {
    "id": 191,
    "libid": "401",
    "name": "Oberlin College",
    "address": "148 W College St",
    "city": "Oberlin",
    "state": "OH",
    "zip": 44074,
    "hub": "CLE",
    "route": 4008
  },
  {
    "id": 192,
    "libid": "648",
    "name": "Ohio Christian University",
    "address": "1476 Lancaster Pike",
    "city": "Circleville",
    "state": "OH",
    "zip": 43113,
    "hub": "CMH",
    "route": 3005
  },
  {
    "id": 193,
    "libid": "410",
    "name": "Ohio Dominican University",
    "address": "1200 Sunbury Rd",
    "city": "Columbus",
    "state": "OH",
    "zip": 43219,
    "hub": "CMH",
    "route": 3003
  },
  {
    "id": 194,
    "libid": "428",
    "name": "Ohio Northern University - Law",
    "address": "415 S Gilbert St",
    "city": "Ada",
    "state": "OH",
    "zip": 45810,
    "hub": "TOL",
    "route": 5003
  },
  {
    "id": 195,
    "libid": "402",
    "name": "Ohio Northern University - Main",
    "address": "525 S Main St",
    "city": "Ada",
    "state": "OH",
    "zip": 45810,
    "hub": "TOL",
    "route": 5003
  },
  {
    "id": 196,
    "libid": "520",
    "name": "Ohio State University - ATI",
    "address": "1328 Dover Rd",
    "city": "Wooster",
    "state": "OH",
    "zip": 44691,
    "hub": "CLE",
    "route": 4002
  },
  {
    "id": 197,
    "libid": "519",
    "name": "Ohio State University - Coshocton",
    "address": "724 S 7th St",
    "city": "Coshocton",
    "state": "OH",
    "zip": 43812,
    "hub": "CMH",
    "route": 3008
  },
  {
    "id": 198,
    "libid": "525",
    "name": "Ohio State University - Health Sciences",
    "address": "376 W 10th Ave",
    "city": "Columbus",
    "state": "OH",
    "zip": 43210,
    "hub": "CMH",
    "route": 3003
  },
  {
    "id": 199,
    "libid": "528",
    "name": "Ohio State University - Knox",
    "address": "236 S. Main St.,  Ariel Hall ",
    "city": "Mount Vernon",
    "state": "OH",
    "zip": 43050,
    "hub": "CMH",
    "route": 3008
  },
  {
    "id": 200,
    "libid": "524",
    "name": "Ohio State University - Law",
    "address": "55 W 12th Ave",
    "city": "Columbus",
    "state": "OH",
    "zip": 43210,
    "hub": "CMH",
    "route": 3003
  },
  {
    "id": 201,
    "libid": "518",
    "name": "Ohio State University - Lima",
    "address": "4240 Campus Dr",
    "city": "Lima",
    "state": "OH",
    "zip": 45804,
    "hub": "DAY",
    "route": 2003
  },
  {
    "id": 202,
    "libid": "212",
    "name": "Ohio State University - Main",
    "address": "1858 Neil Avenue Mall",
    "city": "Columbus",
    "state": "OH",
    "zip": 43210,
    "hub": "CMH",
    "route": 3003
  },
  {
    "id": 203,
    "libid": "521",
    "name": "Ohio State University - Mansfield",
    "address": "1660 University Dr",
    "city": "Mansfield",
    "state": "OH",
    "zip": 44906,
    "hub": "CMH",
    "route": 3008
  },
  {
    "id": 204,
    "libid": "522",
    "name": "Ohio State University - Marion",
    "address": "1465 Mount Vernon Ave",
    "city": "Marion",
    "state": "OH",
    "zip": 43302,
    "hub": "CMH",
    "route": 3004
  },
  {
    "id": 205,
    "libid": "523",
    "name": "Ohio State University - Newark",
    "address": "1179 University Dr",
    "city": "Newark",
    "state": "OH",
    "zip": 43055,
    "hub": "CMH",
    "route": 3003
  },
  {
    "id": 206,
    "libid": "527",
    "name": "Ohio State University - OARDC",
    "address": "1680 Madison Ave",
    "city": "Wooster",
    "state": "OH",
    "zip": 44691,
    "hub": "CLE",
    "route": 4002
  },
  {
    "id": 207,
    "libid": "539",
    "name": "Ohio State University - Pataskala",
    "address": "8660 E Broad St",
    "city": "Reynoldsburg",
    "state": "OH",
    "zip": 43068,
    "hub": "CMH",
    "route": 3008
  },
  {
    "id": 208,
    "libid": "530",
    "name": "Ohio University - Chillicothe",
    "address": "101 University Dr",
    "city": "Chillicothe",
    "state": "OH",
    "zip": 45601,
    "hub": "CMH",
    "route": 3005
  },
  {
    "id": 209,
    "libid": "529",
    "name": "Ohio University - Eastern",
    "address": "45425 National Rd",
    "city": "Saint Clairsville",
    "state": "OH",
    "zip": 43950,
    "hub": "CLE",
    "route": 4001
  },
  {
    "id": 210,
    "libid": "533",
    "name": "Ohio University - Ironton / Southern",
    "address": "1804 Liberty Ave",
    "city": "Ironton",
    "state": "OH",
    "zip": 45638,
    "hub": "CVG",
    "route": 1001
  },
  {
    "id": 211,
    "libid": "532",
    "name": "Ohio University - Lancaster",
    "address": "1570 Granville Pike",
    "city": "Lancaster",
    "state": "OH",
    "zip": 43130,
    "hub": "CMH",
    "route": 3006
  },
  {
    "id": 212,
    "libid": "213",
    "name": "Ohio University - Main",
    "address": "30 Park Pl",
    "city": "Athens",
    "state": "OH",
    "zip": 45701,
    "hub": "CMH",
    "route": 3006
  },
  {
    "id": 213,
    "libid": "535",
    "name": "Ohio University - Proctorville",
    "address": "111 Private Drive 516",
    "city": "Proctorville",
    "state": "OH",
    "zip": 45669,
    "hub": "CVG",
    "route": 1001
  },
  {
    "id": 214,
    "libid": "531",
    "name": "Ohio University - Zanesville",
    "address": "1425 Newark Rd",
    "city": "Zanesville",
    "state": "OH",
    "zip": 43701,
    "hub": "CMH",
    "route": 3001
  },
  {
    "id": 215,
    "libid": "705",
    "name": "Ohio Wesleyan University",
    "address": "43 Rowland Ave",
    "city": "Delaware",
    "state": "OH",
    "zip": 43015,
    "hub": "CMH",
    "route": 3004
  },
  {
    "id": 216,
    "libid": "200",
    "name": "OhioLINK offices - c/o State Library of Ohio",
    "address": "274 E 1st Ave",
    "city": "Columbus",
    "state": "OH",
    "zip": 43201,
    "hub": "CMH",
    "route": 3003
  },
  {
    "id": 217,
    "libid": "625",
    "name": "Otterbein University",
    "address": "138 W Main St",
    "city": "Westerville",
    "state": "OH",
    "zip": 43081,
    "hub": "CMH",
    "route": 3003
  },
  {
    "id": 218,
    "libid": "330",
    "name": "Owens Community College - Findlay",
    "address": "3200 Bright Rd",
    "city": "Findlay",
    "state": "OH",
    "zip": 45840,
    "hub": "TOL",
    "route": 5003
  },
  {
    "id": 219,
    "libid": "312",
    "name": "Owens Community College - Main",
    "address": "30335 Oregon Rd",
    "city": "Perrysburg",
    "state": "OH",
    "zip": 43551,
    "hub": "TOL",
    "route": 5001
  },
  {
    "id": 220,
    "libid": "644",
    "name": "Pontifical College Josephinum",
    "address": "7625 N High St",
    "city": "Columbus",
    "state": "OH",
    "zip": 43235,
    "hub": "CMH",
    "route": 3004
  },
  {
    "id": 221,
    "libid": "399",
    "name": "Portage County District Library",
    "address": "10482 South St",
    "city": "Garrettsville",
    "state": "OH",
    "zip": 44231,
    "hub": "CLE",
    "route": 4006
  },
  {
    "id": 222,
    "libid": "313",
    "name": "Rio Grande Community College - Main",
    "address": "585 E. College Ave.",
    "city": "Rio Grande",
    "state": "OH",
    "zip": 45674,
    "hub": "CVG",
    "route": 1001
  },
  {
    "id": 223,
    "libid": "327",
    "name": "Rio Grande Community College - Meigs",
    "address": "42377 Charles Chancey Dr",
    "city": "Pomeroy",
    "state": "OH",
    "zip": 45769,
    "hub": "CMH",
    "route": 3006
  },
  {
    "id": 224,
    "libid": "870",
    "name": "Rodman Public Library",
    "address": "215 E Broadway St",
    "city": "Alliance",
    "state": "OH",
    "zip": 44601,
    "hub": "CLE",
    "route": 4003
  },
  {
    "id": 225,
    "libid": "250",
    "name": "SUPPLIES - State Library of Ohio",
    "address": "274 E 1st Ave",
    "city": "Columbus",
    "state": "OH",
    "zip": 43201,
    "hub": "CMH",
    "route": 3003
  },
  {
    "id": 226,
    "libid": "670",
    "name": "Saint Mary Seminary",
    "address": "28700 Euclid Ave",
    "city": "Wickliffe",
    "state": "OH",
    "zip": 44092,
    "hub": "CLE",
    "route": 4007
  },
  {
    "id": 227,
    "libid": "872",
    "name": "Salem Public Library",
    "address": "821 E State St",
    "city": "Salem",
    "state": "OH",
    "zip": 44460,
    "hub": "CLE",
    "route": 4003
  },
  {
    "id": 228,
    "libid": "214",
    "name": "Shawnee State University",
    "address": "940 2nd St",
    "city": "Portsmouth",
    "state": "OH",
    "zip": 45662,
    "hub": "CVG",
    "route": 1001
  },
  {
    "id": 229,
    "libid": "343",
    "name": "Sinclair Community College - Centerville",
    "address": "5800 Clyo Rd",
    "city": "Dayton",
    "state": "OH",
    "zip": 45459,
    "hub": "DAY",
    "route": 2004
  },
  {
    "id": 230,
    "libid": "344",
    "name": "Sinclair Community College - Courseview",
    "address": "5386 Courseview Dr",
    "city": "Mason",
    "state": "OH",
    "zip": 45040,
    "hub": "CVG",
    "route": 1004
  },
  {
    "id": 231,
    "libid": "340",
    "name": "Sinclair Community College - Englewood",
    "address": "1150 W National Rd",
    "city": "Englewood",
    "state": "OH",
    "zip": 45315,
    "hub": "DAY",
    "route": 2002
  },
  {
    "id": 232,
    "libid": "345",
    "name": "Sinclair Community College - Huber Heights",
    "address": "7301 Shull Rd",
    "city": "Dayton",
    "state": "OH",
    "zip": 45424,
    "hub": "DAY",
    "route": 2003
  },
  {
    "id": 233,
    "libid": "314",
    "name": "Sinclair Community College - Main",
    "address": "444 W 3rd St",
    "city": "Dayton",
    "state": "OH",
    "zip": 45402,
    "hub": "DAY",
    "route": 2002
  },
  {
    "id": 234,
    "libid": "907",
    "name": "Southeast Regional Book Depository",
    "address": "30 Park Pl",
    "city": "Athens",
    "state": "OH",
    "zip": 45701,
    "hub": "CMH",
    "route": 3006
  },
  {
    "id": 235,
    "libid": "336",
    "name": "Southern State Community College - Brown",
    "address": "351 Brooks Malott Rd",
    "city": "Mount Orab",
    "state": "OH",
    "zip": 45154,
    "hub": "CVG",
    "route": 1002
  },
  {
    "id": 236,
    "libid": "335",
    "name": "Southern State Community College - Central",
    "address": "100 Hobart Dr",
    "city": "Hillsboro",
    "state": "OH",
    "zip": 45133,
    "hub": "CVG",
    "route": 1003
  },
  {
    "id": 237,
    "libid": "338",
    "name": "Southern State Community College - Fayette",
    "address": "1270 US Highway 62 SW",
    "city": "Washington Court House",
    "state": "OH",
    "zip": 43160,
    "hub": "CVG",
    "route": 1004
  },
  {
    "id": 238,
    "libid": "906",
    "name": "Southwest Depository",
    "address": "4200 N University Blvd",
    "city": "Middletown",
    "state": "OH",
    "zip": 45042,
    "hub": "DAY",
    "route": 2002
  },
  {
    "id": 239,
    "libid": "825",
    "name": "Stark County District Library",
    "address": "715 Market Ave N",
    "city": "Canton",
    "state": "OH",
    "zip": 44702,
    "hub": "CLE",
    "route": 4005
  },
  {
    "id": 240,
    "libid": "215",
    "name": "State Library of Ohio - Main",
    "address": "274 E 1st Ave",
    "city": "Columbus",
    "state": "OH",
    "zip": 43201,
    "hub": "CMH",
    "route": 3003
  },
  {
    "id": 241,
    "libid": "875",
    "name": "Stow-Munroe Falls Public Library",
    "address": "3512 Darrow Rd",
    "city": "Stow",
    "state": "OH",
    "zip": 44224,
    "hub": "CLE",
    "route": 4005
  },
  {
    "id": 242,
    "libid": "316",
    "name": "Terra State Community College",
    "address": "2830 Napoleon Rd",
    "city": "Fremont",
    "state": "OH",
    "zip": 43420,
    "hub": "TOL",
    "route": 5001
  },
  {
    "id": 243,
    "libid": "627",
    "name": "Tiffin University",
    "address": "139 Miami St",
    "city": "Tiffin",
    "state": "OH",
    "zip": 44883,
    "hub": "TOL",
    "route": 5001
  },
  {
    "id": 244,
    "libid": "899",
    "name": "Toledo-Lucas County Public Library",
    "address": "325 N Michigan St",
    "city": "Toledo",
    "state": "OH",
    "zip": 43604,
    "hub": "TOL",
    "route": 5001
  },
  {
    "id": 245,
    "libid": "646",
    "name": "Trinity Lutheran Seminary",
    "address": "2199 E Main St",
    "city": "Columbus",
    "state": "OH",
    "zip": 43209,
    "hub": "CMH",
    "route": 3003
  },
  {
    "id": 246,
    "libid": "262",
    "name": "Troy-Miami County Public Library",
    "address": "419 W Main St",
    "city": "Troy",
    "state": "OH",
    "zip": 45373,
    "hub": "DAY",
    "route": 2003
  },
  {
    "id": 247,
    "libid": "570",
    "name": "University of Akron - Lakewood",
    "address": "13701 Lake Ave",
    "city": "Lakewood",
    "state": "OH",
    "zip": 44107,
    "hub": "CLE",
    "route": 4008
  },
  {
    "id": 248,
    "libid": "537",
    "name": "University of Akron - Law",
    "address": "150 University Ave",
    "city": "Akron",
    "state": "OH",
    "zip": 44325,
    "hub": "CLE",
    "route": 4005
  },
  {
    "id": 249,
    "libid": "201",
    "name": "University of Akron - Main",
    "address": "302 Buchtel Mall",
    "city": "Akron",
    "state": "OH",
    "zip": 44325,
    "hub": "CLE",
    "route": 4005
  },
  {
    "id": 250,
    "libid": "571",
    "name": "University of Akron - Medina",
    "address": "6300 Technology Ln",
    "city": "Medina",
    "state": "OH",
    "zip": 44256,
    "hub": "CLE",
    "route": 4002
  },
  {
    "id": 251,
    "libid": "501",
    "name": "University of Akron - Wayne",
    "address": "1901 Smucker Rd",
    "city": "Orrville",
    "state": "OH",
    "zip": 44667,
    "hub": "CLE",
    "route": 4002
  },
  {
    "id": 252,
    "libid": "503",
    "name": "University of Cincinnati - Blue Ash",
    "address": "9555 Plainfield Rd",
    "city": "Blue Ash",
    "state": "OH",
    "zip": 45236,
    "hub": "CVG",
    "route": 1005
  },
  {
    "id": 253,
    "libid": "565",
    "name": "University of Cincinnati - Cincinnati Children\u2019s Hospital",
    "address": "3333 Burnet Ave",
    "city": "Cincinnati",
    "state": "OH",
    "zip": 45229,
    "hub": "CVG",
    "route": 1005
  },
  {
    "id": 254,
    "libid": "504",
    "name": "University of Cincinnati - Clermont",
    "address": "4200 Clermont College Dr",
    "city": "Batavia",
    "state": "OH",
    "zip": 45103,
    "hub": "CVG",
    "route": 1002
  },
  {
    "id": 255,
    "libid": "505",
    "name": "University of Cincinnati - Health",
    "address": "231 Albert Sabin Way",
    "city": "Cincinnati",
    "state": "OH",
    "zip": 45267,
    "hub": "CVG",
    "route": 1005
  },
  {
    "id": 256,
    "libid": "506",
    "name": "University of Cincinnati - Law",
    "address": "2540 W Clifton Ave",
    "city": "Cincinnati",
    "state": "OH",
    "zip": 45219,
    "hub": "CVG",
    "route": 1005
  },
  {
    "id": 257,
    "libid": "560",
    "name": "University of Cincinnati - Lloyd",
    "address": "917 Plum St",
    "city": "Cincinnati",
    "state": "OH",
    "zip": 45202,
    "hub": "CVG",
    "route": 1005
  },
  {
    "id": 258,
    "libid": "205",
    "name": "University of Cincinnati - Main",
    "address": "2911 Woodside Dr",
    "city": "Cincinnati",
    "state": "OH",
    "zip": 45221,
    "hub": "CVG",
    "route": 1005
  },
  {
    "id": 259,
    "libid": "538",
    "name": "University of Dayton - Law",
    "address": "300 College Park Ave",
    "city": "Dayton",
    "state": "OH",
    "zip": 45469,
    "hub": "DAY",
    "route": 2004
  },
  {
    "id": 260,
    "libid": "207",
    "name": "University of Dayton - Main",
    "address": "300 College Park Ave",
    "city": "Dayton",
    "state": "OH",
    "zip": 45469,
    "hub": "DAY",
    "route": 2004
  },
  {
    "id": 261,
    "libid": "611",
    "name": "University of Findlay",
    "address": "1000 N Main St",
    "city": "Findlay",
    "state": "OH",
    "zip": 45840,
    "hub": "TOL",
    "route": 5003
  },
  {
    "id": 262,
    "libid": "621",
    "name": "University of Mount Union",
    "address": "1972 Clark Ave",
    "city": "Alliance",
    "state": "OH",
    "zip": 44601,
    "hub": "CLE",
    "route": 4003
  },
  {
    "id": 263,
    "libid": "672",
    "name": "University of Northwestern Ohio",
    "address": "1441 N Cable Rd",
    "city": "Lima",
    "state": "OH",
    "zip": 45805,
    "hub": "DAY",
    "route": 2003
  },
  {
    "id": 264,
    "libid": "209",
    "name": "University of Toledo - Health",
    "address": "3045 Arlington Ave",
    "city": "Toledo",
    "state": "OH",
    "zip": 43614,
    "hub": "TOL",
    "route": 5001
  },
  {
    "id": 265,
    "libid": "545",
    "name": "University of Toledo - Law",
    "address": "2801 W Bancroft St",
    "city": "Toledo",
    "state": "OH",
    "zip": 43606,
    "hub": "TOL",
    "route": 5001
  },
  {
    "id": 266,
    "libid": "216",
    "name": "University of Toledo - Main",
    "address": "2801 W Bancroft St",
    "city": "Toledo",
    "state": "OH",
    "zip": 43606,
    "hub": "TOL",
    "route": 5001
  },
  {
    "id": 267,
    "libid": "409",
    "name": "Ursuline College",
    "address": "2550 Lander Rd",
    "city": "Cleveland",
    "state": "OH",
    "zip": 44124,
    "hub": "CLE",
    "route": 4006
  },
  {
    "id": 268,
    "libid": "599",
    "name": "Wadsworth Public Library",
    "address": "132 Broad St",
    "city": "Wadsworth",
    "state": "OH",
    "zip": 44281,
    "hub": "CLE",
    "route": 4002
  },
  {
    "id": 269,
    "libid": "640",
    "name": "Walsh University",
    "address": "2020 E Maple St",
    "city": "North Canton",
    "state": "OH",
    "zip": 44720,
    "hub": "CLE",
    "route": 4005
  },
  {
    "id": 270,
    "libid": "999",
    "name": "Warren-Trumbull County Public Library",
    "address": "444 Mahoning Ave NW",
    "city": "Warren",
    "state": "OH",
    "zip": 44483,
    "hub": "CLE",
    "route": 4004
  },
  {
    "id": 271,
    "libid": "890",
    "name": "Washington - Centerville Public Library",
    "address": "111 W Spring Valley Pike",
    "city": "Dayton",
    "state": "OH",
    "zip": 45458,
    "hub": "CMH",
    "route": 3003
  },
  {
    "id": 272,
    "libid": "317",
    "name": "Washington State Community College",
    "address": "710 Colegate Dr",
    "city": "Marietta",
    "state": "OH",
    "zip": 45750,
    "hub": "CMH",
    "route": 3001
  },
  {
    "id": 273,
    "libid": "877",
    "name": "Wellsville Carnegie Public Library",
    "address": "115 9th St",
    "city": "Wellsville",
    "state": "OH",
    "zip": 43968,
    "hub": "CLE",
    "route": 4001
  },
  {
    "id": 274,
    "libid": "437",
    "name": "Westerville Public Library",
    "address": "126 S State St",
    "city": "Westerville",
    "state": "OH",
    "zip": 43081,
    "hub": "CMH",
    "route": 3003
  },
  {
    "id": 275,
    "libid": "885",
    "name": "Westlake Porter Public Library",
    "address": "27333 Center Ridge Rd",
    "city": "Westlake",
    "state": "OH",
    "zip": 44145,
    "hub": "CLE",
    "route": 4008
  },
  {
    "id": 276,
    "libid": "631",
    "name": "Wilmington College",
    "address": "1 College St",
    "city": "Wilmington",
    "state": "OH",
    "zip": 45177,
    "hub": "CVG",
    "route": 1004
  },
  {
    "id": 277,
    "libid": "412",
    "name": "Wittenberg University",
    "address": "801 Woodlawn Ave",
    "city": "Springfield",
    "state": "OH",
    "zip": 45504,
    "hub": "DAY",
    "route": 2003
  },
  {
    "id": 278,
    "libid": "891",
    "name": "Wright Memorial Public Library",
    "address": "1776 Far Hills Ave",
    "city": "Oakwood",
    "state": "OH",
    "zip": 45419,
    "hub": "DAY",
    "route": 2004
  },
  {
    "id": 279,
    "libid": "551",
    "name": "Wright State University - Kettering",
    "address": "3737 Southern Blvd",
    "city": "Dayton",
    "state": "OH",
    "zip": 45429,
    "hub": "DAY",
    "route": 2004
  },
  {
    "id": 280,
    "libid": "549",
    "name": "Wright State University - Lake",
    "address": "7600 Lake Campus Dr",
    "city": "Celina",
    "state": "OH",
    "zip": 45822,
    "hub": "DAY",
    "route": 2001
  },
  {
    "id": 281,
    "libid": "217",
    "name": "Wright State University - Main",
    "address": "3640 Colonel Glenn Hwy",
    "city": "Dayton",
    "state": "OH",
    "zip": 45435,
    "hub": "DAY",
    "route": 2004
  },
  {
    "id": 282,
    "libid": "406",
    "name": "Xavier University",
    "address": "3800 Victory Pkwy",
    "city": "Cincinnati",
    "state": "OH",
    "zip": 45207,
    "hub": "CVG",
    "route": 1005
  },
  {
    "id": 283,
    "libid": "799",
    "name": "Youngstown & Mahoning County, Public Lib. Of",
    "address": "3730 Market St",
    "city": "Youngstown",
    "state": "OH",
    "zip": 44507,
    "hub": "CLE",
    "route": 4003
  },
  {
    "id": 284,
    "libid": "218",
    "name": "Youngstown State University",
    "address": "1 University Plz",
    "city": "Youngstown",
    "state": "OH",
    "zip": 44555,
    "hub": "CLE",
    "route": 4003
  }
]
